1 26871U 01031A   11365.15711030 -.00000280  00000-0  10000-3 0  3891
2 26871 001.8777 074.8226 0002681 251.4911 129.7335 01.00265703 38303